ESEO                    
1 43792U 18099AL  26068.65529582  .00002831  00000+0  20935-3 0  9991
2 43792  97.4113 110.2601 0011063 317.6000  42.4371 15.03914518396849
STARLINK-5636           
1 55454U 23015F   26068.83489111  .00121683  00000+0  86326-2 0  9998
2 55454  43.0038 325.3860 0001127 279.1207  80.9509 15.03547663170772
